O3B FM20                
1 44112U 19020A   26116.84011893 -.00000027  00000+0  00000+0 0  9992
2 44112   0.0532   1.3271 0002586  24.3542 334.3301  5.00115510129006
O3B FM19                
1 44113U 19020B   26111.67003593 -.00000022  00000+0  00000+0 0  9992
2 44113   0.0716 348.2754 0003491  26.5306 345.2041  5.00115966128611
O3B FM17                
1 44114U 19020C   26117.14719065 -.00000027  00000+0  00000+0 0  9994
2 44114   0.0341 355.3108 0002611  37.9230 326.7813  5.00115502128979
O3B FM18                
1 44115U 19020D   26116.89361250 -.00000027  00000+0  00000+0 0  9995
2 44115   0.0537   1.4716 0002732  36.1801 322.3660  5.00115252129087
SALSAT                  
1 46495U 20068K   26117.24379231  .00009696  00000+0  34616-3 0  9994
2 46495  97.8862 117.2385 0011569 117.3130 242.9288 15.29030388307571
O3B MPOWER F1           
1 54755U 22174A   26116.94996102 -.00000027  00000+0  00000+0 0  9996
2 54755   0.0597 347.2739 0005896  65.6164 268.3717  5.00114858 62790
O3B MPOWER F2           
1 54756U 22174B   26116.93811350 -.00000027  00000+0  00000+0 0  9997
2 54756   0.0562 344.9430 0005939  48.8998 326.1936  5.00115355 62879
O3B MPOWER F4           
1 56367U 23059A   26117.20231875 -.00000027  00000+0  00000+0 0  9999
2 56367   0.0649   2.4951 0007267  45.5502 312.0153  5.00115878 56058
O3B MPOWER F3           
1 56368U 23059B   26117.03569700 -.00000027  00000+0  00000+0 0  9992
2 56368   0.0660   2.2345 0006656  35.9779 321.8335  5.00116644 52167
O3B MPOWER F9           
1 64866U 25153A   26116.60413794 -.00000027  00000+0  00000+0 0  9994
2 64866   0.0540  15.2001 0005566  45.3941 299.4598  5.00116075 16972
O3B MPOWER F10          
1 64867U 25153B   26116.96981924 -.00000027  00000+0  00000+0 0  9999
2 64867   0.0539  10.2429 0002808 262.5298  87.1938  5.00114883 19477
