[{"OBJECT_NAME":"O3B FM20","OBJECT_ID":"2019-020A","EPOCH":"2026-04-26T20:09:46.275552","MEAN_MOTION":5.0011551,"ECCENTRICITY":0.00025865,"INCLINATION":0.0532,"RA_OF_ASC_NODE":1.3271,"ARG_OF_PERICENTER":24.3542,"MEAN_ANOMALY":334.3301,"EPHEMERIS_TYPE":0,"CLASSIFICATION_TYPE":"U","NORAD_CAT_ID":44112,"ELEMENT_SET_NO":999,"REV_AT_EPOCH":12900,"BSTAR":0,"MEAN_MOTION_DOT":-2.7e-7,"MEAN_MOTION_DDOT":0},{"OBJECT_NAME":"O3B FM19","OBJECT_ID":"2019-020B","EPOCH":"2026-04-21T16:04:51.104352","MEAN_MOTION":5.00115966,"ECCENTRICITY":0.0003491,"INCLINATION":0.0716,"RA_OF_ASC_NODE":348.2754,"ARG_OF_PERICENTER":26.5306,"MEAN_ANOMALY":345.2041,"EPHEMERIS_TYPE":0,"CLASSIFICATION_TYPE":"U","NORAD_CAT_ID":44113,"ELEMENT_SET_NO":999,"REV_AT_EPOCH":12861,"BSTAR":0,"MEAN_MOTION_DOT":-2.2e-7,"MEAN_MOTION_DDOT":0},{"OBJECT_NAME":"O3B FM17","OBJECT_ID":"2019-020C","EPOCH":"2026-04-27T03:31:57.272160","MEAN_MOTION":5.00115502,"ECCENTRICITY":0.00026111,"INCLINATION":0.0341,"RA_OF_ASC_NODE":355.3108,"ARG_OF_PERICENTER":37.923,"MEAN_ANOMALY":326.7813,"EPHEMERIS_TYPE":0,"CLASSIFICATION_TYPE":"U","NORAD_CAT_ID":44114,"ELEMENT_SET_NO":999,"REV_AT_EPOCH":12897,"BSTAR":0,"MEAN_MOTION_DOT":-2.7e-7,"MEAN_MOTION_DDOT":0},{"OBJECT_NAME":"O3B FM18","OBJECT_ID":"2019-020D","EPOCH":"2026-04-26T21:26:48.120000","MEAN_MOTION":5.00115252,"ECCENTRICITY":0.00027328,"INCLINATION":0.0537,"RA_OF_ASC_NODE":1.4716,"ARG_OF_PERICENTER":36.1801,"MEAN_ANOMALY":322.366,"EPHEMERIS_TYPE":0,"CLASSIFICATION_TYPE":"U","NORAD_CAT_ID":44115,"ELEMENT_SET_NO":999,"REV_AT_EPOCH":12908,"BSTAR":0,"MEAN_MOTION_DOT":-2.7e-7,"MEAN_MOTION_DDOT":0},{"OBJECT_NAME":"SALSAT","OBJECT_ID":"2020-068K","EPOCH":"2026-04-27T05:51:03.655584","MEAN_MOTION":15.29030388,"ECCENTRICITY":0.00115696,"INCLINATION":97.8862,"RA_OF_ASC_NODE":117.2385,"ARG_OF_PERICENTER":117.313,"MEAN_ANOMALY":242.9288,"EPHEMERIS_TYPE":0,"CLASSIFICATION_TYPE":"U","NORAD_CAT_ID":46495,"ELEMENT_SET_NO":999,"REV_AT_EPOCH":30757,"BSTAR":0.00034615871,"MEAN_MOTION_DOT":9.696e-5,"MEAN_MOTION_DDOT":0},{"OBJECT_NAME":"O3B MPOWER F1","OBJECT_ID":"2022-174A","EPOCH":"2026-04-26T22:47:56.632128","MEAN_MOTION":5.00114858,"ECCENTRICITY":0.0005896,"INCLINATION":0.0597,"RA_OF_ASC_NODE":347.2739,"ARG_OF_PERICENTER":65.6164,"MEAN_ANOMALY":268.3717,"EPHEMERIS_TYPE":0,"CLASSIFICATION_TYPE":"U","NORAD_CAT_ID":54755,"ELEMENT_SET_NO":999,"REV_AT_EPOCH":6279,"BSTAR":0,"MEAN_MOTION_DOT":-2.7e-7,"MEAN_MOTION_DDOT":0},{"OBJECT_NAME":"O3B MPOWER F2","OBJECT_ID":"2022-174B","EPOCH":"2026-04-26T22:30:53.006400","MEAN_MOTION":5.00115355,"ECCENTRICITY":0.00059394,"INCLINATION":0.0562,"RA_OF_ASC_NODE":344.943,"ARG_OF_PERICENTER":48.8998,"MEAN_ANOMALY":326.1936,"EPHEMERIS_TYPE":0,"CLASSIFICATION_TYPE":"U","NORAD_CAT_ID":54756,"ELEMENT_SET_NO":999,"REV_AT_EPOCH":6287,"BSTAR":0,"MEAN_MOTION_DOT":-2.7e-7,"MEAN_MOTION_DDOT":0},{"OBJECT_NAME":"O3B MPOWER F4","OBJECT_ID":"2023-059A","EPOCH":"2026-04-27T04:51:20.340000","MEAN_MOTION":5.00115878,"ECCENTRICITY":0.00072675,"INCLINATION":0.0649,"RA_OF_ASC_NODE":2.4951,"ARG_OF_PERICENTER":45.5502,"MEAN_ANOMALY":312.0153,"EPHEMERIS_TYPE":0,"CLASSIFICATION_TYPE":"U","NORAD_CAT_ID":56367,"ELEMENT_SET_NO":999,"REV_AT_EPOCH":5605,"BSTAR":0,"MEAN_MOTION_DOT":-2.7e-7,"MEAN_MOTION_DDOT":0},{"OBJECT_NAME":"O3B MPOWER F3","OBJECT_ID":"2023-059B","EPOCH":"2026-04-27T00:51:24.220800","MEAN_MOTION":5.00116644,"ECCENTRICITY":0.00066561,"INCLINATION":0.066,"RA_OF_ASC_NODE":2.2345,"ARG_OF_PERICENTER":35.9779,"MEAN_ANOMALY":321.8335,"EPHEMERIS_TYPE":0,"CLASSIFICATION_TYPE":"U","NORAD_CAT_ID":56368,"ELEMENT_SET_NO":999,"REV_AT_EPOCH":5216,"BSTAR":0,"MEAN_MOTION_DOT":-2.7e-7,"MEAN_MOTION_DDOT":0},{"OBJECT_NAME":"O3B MPOWER F9","OBJECT_ID":"2025-153A","EPOCH":"2026-04-26T14:29:57.518016","MEAN_MOTION":5.00116075,"ECCENTRICITY":0.00055662,"INCLINATION":0.054,"RA_OF_ASC_NODE":15.2001,"ARG_OF_PERICENTER":45.3941,"MEAN_ANOMALY":299.4598,"EPHEMERIS_TYPE":0,"CLASSIFICATION_TYPE":"U","NORAD_CAT_ID":64866,"ELEMENT_SET_NO":999,"REV_AT_EPOCH":1697,"BSTAR":0,"MEAN_MOTION_DOT":-2.7e-7,"MEAN_MOTION_DDOT":0},{"OBJECT_NAME":"O3B MPOWER F10","OBJECT_ID":"2025-153B","EPOCH":"2026-04-26T23:16:32.382336","MEAN_MOTION":5.00114883,"ECCENTRICITY":0.00028086,"INCLINATION":0.0539,"RA_OF_ASC_NODE":10.2429,"ARG_OF_PERICENTER":262.5298,"MEAN_ANOMALY":87.1938,"EPHEMERIS_TYPE":0,"CLASSIFICATION_TYPE":"U","NORAD_CAT_ID":64867,"ELEMENT_SET_NO":999,"REV_AT_EPOCH":1947,"BSTAR":0,"MEAN_MOTION_DOT":-2.7e-7,"MEAN_MOTION_DDOT":0}]
